[{"OBJECT_NAME":"STARLINK-30761","OBJECT_ID":"2023-162S","EPOCH":"2026-03-09T22:00:01.999584","MEAN_MOTION":15.22487604,"ECCENTRICITY":0.00012558,"INCLINATION":43.0005,"RA_OF_ASC_NODE":131.2641,"ARG_OF_PERICENTER":271.7524,"MEAN_ANOMALY":352.0491,"EPHEMERIS_TYPE":0,"CLASSIFICATION_TYPE":"U","NORAD_CAT_ID":58134,"ELEMENT_SET_NO":999,"REV_AT_EPOCH":577,"BSTAR":0.050104307,"MEAN_MOTION_DOT":0.01299241,"MEAN_MOTION_DDOT":0},{"OBJECT_NAME":"QMR-KWT-2 (RS95S)","OBJECT_ID":"2025-313AV","EPOCH":"2026-03-09T22:24:23.954112","MEAN_MOTION":15.23495357,"ECCENTRICITY":0.00086588,"INCLINATION":97.4002,"RA_OF_ASC_NODE":145.3491,"ARG_OF_PERICENTER":352.0298,"MEAN_ANOMALY":8.08,"EPHEMERIS_TYPE":0,"CLASSIFICATION_TYPE":"U","NORAD_CAT_ID":67291,"ELEMENT_SET_NO":999,"REV_AT_EPOCH":1086,"BSTAR":0.00073635418,"MEAN_MOTION_DOT":0.00017543,"MEAN_MOTION_DDOT":0}]
